[{"OBJECT_NAME":"BEIDOU-3 G4 (C62)","OBJECT_ID":"2023-066A","EPOCH":"2026-04-27T11:19:30.977184","MEAN_MOTION":1.00272248,"ECCENTRICITY":0.0002857,"INCLINATION":0.5561,"RA_OF_ASC_NODE":320.1476,"ARG_OF_PERICENTER":159.8914,"MEAN_ANOMALY":45.3872,"EPHEMERIS_TYPE":0,"CLASSIFICATION_TYPE":"U","NORAD_CAT_ID":56564,"ELEMENT_SET_NO":999,"REV_AT_EPOCH":1088,"BSTAR":0,"MEAN_MOTION_DOT":-2.91e-6,"MEAN_MOTION_DDOT":0},{"OBJECT_NAME":"NVS-01 (IRNSS-1J)","OBJECT_ID":"2023-076A","EPOCH":"2026-04-27T11:23:53.610720","MEAN_MOTION":1.00268169,"ECCENTRICITY":0.0005374,"INCLINATION":2.2854,"RA_OF_ASC_NODE":246.5344,"ARG_OF_PERICENTER":50.3148,"MEAN_ANOMALY":219.0984,"EPHEMERIS_TYPE":0,"CLASSIFICATION_TYPE":"U","NORAD_CAT_ID":56759,"ELEMENT_SET_NO":999,"REV_AT_EPOCH":1060,"BSTAR":0,"MEAN_MOTION_DOT":-3.47e-6,"MEAN_MOTION_DDOT":0},{"OBJECT_NAME":"COSMOS 2569 (703K)","OBJECT_ID":"2023-114A","EPOCH":"2026-04-27T02:30:10.694880","MEAN_MOTION":2.13103778,"ECCENTRICITY":0.0012393,"INCLINATION":65.2749,"RA_OF_ASC_NODE":74.342,"ARG_OF_PERICENTER":295.4044,"MEAN_ANOMALY":64.4431,"EPHEMERIS_TYPE":0,"CLASSIFICATION_TYPE":"U","NORAD_CAT_ID":57517,"ELEMENT_SET_NO":999,"REV_AT_EPOCH":2117,"BSTAR":0,"MEAN_MOTION_DOT":-4.0e-8,"MEAN_MOTION_DDOT":0},{"OBJECT_NAME":"BEIDOU-3 M28 (C50)","OBJECT_ID":"2023-207A","EPOCH":"2026-04-26T18:01:45.497856","MEAN_MOTION":1.86229709,"ECCENTRICITY":0.00046007,"INCLINATION":55.7097,"RA_OF_ASC_NODE":64.0374,"ARG_OF_PERICENTER":323.2817,"MEAN_ANOMALY":36.6572,"EPHEMERIS_TYPE":0,"CLASSIFICATION_TYPE":"U","NORAD_CAT_ID":58654,"ELEMENT_SET_NO":999,"REV_AT_EPOCH":1588,"BSTAR":0,"MEAN_MOTION_DOT":-4.4e-7,"MEAN_MOTION_DDOT":0},{"OBJECT_NAME":"BEIDOU-3 M26 (C48)","OBJECT_ID":"2023-207B","EPOCH":"2026-04-27T02:03:22.039200","MEAN_MOTION":1.86229693,"ECCENTRICITY":0.000496,"INCLINATION":55.712,"RA_OF_ASC_NODE":64.0127,"ARG_OF_PERICENTER":305.1993,"MEAN_ANOMALY":54.7237,"EPHEMERIS_TYPE":0,"CLASSIFICATION_TYPE":"U","NORAD_CAT_ID":58655,"ELEMENT_SET_NO":999,"REV_AT_EPOCH":1587,"BSTAR":0,"MEAN_MOTION_DOT":-4.8e-7,"MEAN_MOTION_DDOT":0},{"OBJECT_NAME":"GSAT0225 (GALILEO 29)","OBJECT_ID":"2024-079A","EPOCH":"2026-04-26T12:18:05.867424","MEAN_MOTION":1.70474393,"ECCENTRICITY":0.00026444,"INCLINATION":55.0873,"RA_OF_ASC_NODE":102.5222,"ARG_OF_PERICENTER":283.706,"MEAN_ANOMALY":268.0228,"EPHEMERIS_TYPE":0,"CLASSIFICATION_TYPE":"U","NORAD_CAT_ID":59598,"ELEMENT_SET_NO":999,"REV_AT_EPOCH":1243,"BSTAR":0,"MEAN_MOTION_DOT":4.3e-7,"MEAN_MOTION_DDOT":0},{"OBJECT_NAME":"GSAT0227 (GALILEO 30)","OBJECT_ID":"2024-079C","EPOCH":"2026-04-26T23:16:59.988000","MEAN_MOTION":1.70474385,"ECCENTRICITY":0.00012648,"INCLINATION":55.0827,"RA_OF_ASC_NODE":102.5083,"ARG_OF_PERICENTER":14.0321,"MEAN_ANOMALY":345.9647,"EPHEMERIS_TYPE":0,"CLASSIFICATION_TYPE":"U","NORAD_CAT_ID":59600,"ELEMENT_SET_NO":999,"REV_AT_EPOCH":1249,"BSTAR":0,"MEAN_MOTION_DOT":4.1e-7,"MEAN_MOTION_DDOT":0},{"OBJECT_NAME":"GSAT0232 (GALILEO 32)","OBJECT_ID":"2024-167A","EPOCH":"2026-04-25T10:48:14.679360","MEAN_MOTION":1.70474394,"ECCENTRICITY":0.00048449,"INCLINATION":55.2008,"RA_OF_ASC_NODE":222.7596,"ARG_OF_PERICENTER":214.4336,"MEAN_ANOMALY":148.2272,"EPHEMERIS_TYPE":0,"CLASSIFICATION_TYPE":"U","NORAD_CAT_ID":61182,"ELEMENT_SET_NO":999,"REV_AT_EPOCH":998,"BSTAR":0,"MEAN_MOTION_DOT":-3.7e-7,"MEAN_MOTION_DDOT":0},{"OBJECT_NAME":"GSAT0226 (GALILEO 31)","OBJECT_ID":"2024-167B","EPOCH":"2026-04-27T01:30:11.070432","MEAN_MOTION":1.70474449,"ECCENTRICITY":0.0001799,"INCLINATION":55.1989,"RA_OF_ASC_NODE":222.7226,"ARG_OF_PERICENTER":195.0012,"MEAN_ANOMALY":168.6094,"EPHEMERIS_TYPE":0,"CLASSIFICATION_TYPE":"U","NORAD_CAT_ID":61183,"ELEMENT_SET_NO":999,"REV_AT_EPOCH":998,"BSTAR":0,"MEAN_MOTION_DOT":-3.8e-7,"MEAN_MOTION_DDOT":0},{"OBJECT_NAME":"BEIDOU-3 M25 (C47)","OBJECT_ID":"2024-168B","EPOCH":"2026-04-27T10:34:56.680320","MEAN_MOTION":1.86230124,"ECCENTRICITY":0.0003273,"INCLINATION":54.5193,"RA_OF_ASC_NODE":304.0043,"ARG_OF_PERICENTER":319.167,"MEAN_ANOMALY":36.12,"EPHEMERIS_TYPE":0,"CLASSIFICATION_TYPE":"U","NORAD_CAT_ID":61186,"ELEMENT_SET_NO":999,"REV_AT_EPOCH":1083,"BSTAR":0,"MEAN_MOTION_DOT":-6.6e-7,"MEAN_MOTION_DDOT":0},{"OBJECT_NAME":"BEIDOU-3 M27 (C49)","OBJECT_ID":"2024-168C","EPOCH":"2026-04-26T23:27:45.313056","MEAN_MOTION":1.86230201,"ECCENTRICITY":0.00026089,"INCLINATION":54.5152,"RA_OF_ASC_NODE":304.0035,"ARG_OF_PERICENTER":40.2618,"MEAN_ANOMALY":139.4025,"EPHEMERIS_TYPE":0,"CLASSIFICATION_TYPE":"U","NORAD_CAT_ID":61187,"ELEMENT_SET_NO":999,"REV_AT_EPOCH":830,"BSTAR":0,"MEAN_MOTION_DOT":-6.2e-7,"MEAN_MOTION_DDOT":0},{"OBJECT_NAME":"GPS BIII-7  (PRN 01)","OBJECT_ID":"2024-242A","EPOCH":"2026-04-26T05:41:38.583168","MEAN_MOTION":2.00570556,"ECCENTRICITY":0.00168326,"INCLINATION":54.8705,"RA_OF_ASC_NODE":336.2872,"ARG_OF_PERICENTER":0.5482,"MEAN_ANOMALY":176.6523,"EPHEMERIS_TYPE":0,"CLASSIFICATION_TYPE":"U","NORAD_CAT_ID":62339,"ELEMENT_SET_NO":999,"REV_AT_EPOCH":1021,"BSTAR":0,"MEAN_MOTION_DOT":-8.5e-7,"MEAN_MOTION_DDOT":0},{"OBJECT_NAME":"NVS-02 (IRNSS-1K)","OBJECT_ID":"2025-020A","EPOCH":"2026-04-26T13:35:38.202432","MEAN_MOTION":2.17876983,"ECCENTRICITY":0.7348841,"INCLINATION":20.792,"RA_OF_ASC_NODE":278.1255,"ARG_OF_PERICENTER":115.0158,"MEAN_ANOMALY":334.4623,"EPHEMERIS_TYPE":0,"CLASSIFICATION_TYPE":"U","NORAD_CAT_ID":62850,"ELEMENT_SET_NO":999,"REV_AT_EPOCH":985,"BSTAR":0.001286,"MEAN_MOTION_DOT":1.566e-5,"MEAN_MOTION_DDOT":0},{"OBJECT_NAME":"QZS-6 (QZSS/PRN 200)","OBJECT_ID":"2025-023A","EPOCH":"2026-04-27T08:20:38.832288","MEAN_MOTION":1.00271463,"ECCENTRICITY":0.0002727,"INCLINATION":0.0139,"RA_OF_ASC_NODE":71.2493,"ARG_OF_PERICENTER":335.1976,"MEAN_ANOMALY":24.5374,"EPHEMERIS_TYPE":0,"CLASSIFICATION_TYPE":"U","NORAD_CAT_ID":62876,"ELEMENT_SET_NO":999,"REV_AT_EPOCH":444,"BSTAR":0,"MEAN_MOTION_DOT":0,"MEAN_MOTION_DDOT":0},{"OBJECT_NAME":"COSMOS 2584 (704K)","OBJECT_ID":"2025-042A","EPOCH":"2026-04-26T23:47:18.747744","MEAN_MOTION":2.13103661,"ECCENTRICITY":0.00067402,"INCLINATION":65.057,"RA_OF_ASC_NODE":74.5414,"ARG_OF_PERICENTER":237.4306,"MEAN_ANOMALY":122.4806,"EPHEMERIS_TYPE":0,"CLASSIFICATION_TYPE":"U","NORAD_CAT_ID":63130,"ELEMENT_SET_NO":999,"REV_AT_EPOCH":895,"BSTAR":0,"MEAN_MOTION_DOT":-2.0e-8,"MEAN_MOTION_DDOT":0},{"OBJECT_NAME":"GPS BIII-8  (PRN 21)","OBJECT_ID":"2025-116A","EPOCH":"2026-04-23T05:49:38.568864","MEAN_MOTION":2.00549673,"ECCENTRICITY":0.00091244,"INCLINATION":55.1985,"RA_OF_ASC_NODE":33.3417,"ARG_OF_PERICENTER":335.2523,"MEAN_ANOMALY":22.0569,"EPHEMERIS_TYPE":0,"CLASSIFICATION_TYPE":"U","NORAD_CAT_ID":64202,"ELEMENT_SET_NO":999,"REV_AT_EPOCH":676,"BSTAR":0,"MEAN_MOTION_DOT":-8.1e-7,"MEAN_MOTION_DDOT":0},{"OBJECT_NAME":"COSMOS 2596 (708K)","OBJECT_ID":"2025-206B","EPOCH":"2026-04-26T03:19:35.330304","MEAN_MOTION":2.13100475,"ECCENTRICITY":0.00115765,"INCLINATION":64.6645,"RA_OF_ASC_NODE":316.797,"ARG_OF_PERICENTER":316.957,"MEAN_ANOMALY":225.8124,"EPHEMERIS_TYPE":0,"CLASSIFICATION_TYPE":"U","NORAD_CAT_ID":65590,"ELEMENT_SET_NO":999,"REV_AT_EPOCH":480,"BSTAR":0,"MEAN_MOTION_DOT":-2.9e-7,"MEAN_MOTION_DDOT":0}]
